{"type": "FeatureCollection", "features": [ {"type": "Feature", "properties": {"norad_id": 67111, "name": "STARLINK-35875", "group": "last-30-days", "lat": 42.8469902992354, "lon": -24.054056266839595, "alt_km": 313.04035140982614, "timestamp": "2025-12-25T03:55:54.957239+00:00", "meta": {"OBJECT_NAME": "STARLINK-35875", "OBJECT_ID": "2025-299K", "EPOCH": "2025-12-24T20:00:01.000224", "MEAN_MOTION": 15.85502216, "ECCENTRICITY": 0.0001694, "INCLINATION": 42.9973, "RA_OF_ASC_NODE": 242.5345, "ARG_OF_PERICENTER": 261.012, "MEAN_ANOMALY": 105.0967, "EPHEMERIS_TYPE": 0, "CLASSIFICATION_TYPE": "U", "NORAD_CAT_ID": 67111, "ELEMENT_SET_NO": 999, "REV_AT_EPOCH": 264, "BSTAR": -0.0083287, "MEAN_MOTION_DOT": -0.01783966, "MEAN_MOTION_DDOT": 0}, "tle": {"line1": "1 67111U 25299K   25358.83334491 -.01783966  00000+0 -83287-2 0  9992", "line2": "2 67111  42.9973 242.5345 0001694 261.0120 105.0967 15.85502216  2644"}}, "geometry": {"type": "Point", "coordinates": [-24.054056266839595, 42.8469902992354]}}, {"type": "Feature", "properties": {"norad_id": 67112, "name": "STARLINK-35906", "group": "last-30-days", "lat": 42.55608838420619, "lon": -19.70560362115609, "alt_km": 313.1035222844348, "timestamp": "2025-12-25T03:55:54.957249+00:00", "meta": {"OBJECT_NAME": "STARLINK-35906", "OBJECT_ID": "2025-299L", "EPOCH": "2025-12-24T20:00:01.000224", "MEAN_MOTION": 15.85525503, "ECCENTRICITY": 0.0001767, "INCLINATION": 42.9972, "RA_OF_ASC_NODE": 242.5264, "ARG_OF_PERICENTER": 268.2076, "MEAN_ANOMALY": 101.0846, "EPHEMERIS_TYPE": 0, "CLASSIFICATION_TYPE": "U", "NORAD_CAT_ID": 67112, "ELEMENT_SET_NO": 999, "REV_AT_EPOCH": 264, "BSTAR": -0.008353, "MEAN_MOTION_DOT": -0.01790234, "MEAN_MOTION_DDOT": 0}, "tle": {"line1": "1 67112U 25299L   25358.83334491 -.01790234  00000+0 -83530-2 0  9990", "line2": "2 67112  42.9972 242.5264 0001767 268.2076 101.0846 15.85525503  2640"}}, "geometry": {"type": "Point", "coordinates": [-19.70560362115609, 42.55608838420619]}}, {"type": "Feature", "properties": {"norad_id": 67113, "name": "STARLINK-35789", "group": "last-30-days", "lat": 42.35387970983623, "lon": -17.59462057509094, "alt_km": 313.026519206207, "timestamp": "2025-12-25T03:55:54.957259+00:00", "meta": {"OBJECT_NAME": "STARLINK-35789", "OBJECT_ID": "2025-299M", "EPOCH": "2025-12-24T20:00:01.000224", "MEAN_MOTION": 15.85536036, "ECCENTRICITY": 0.0001679, "INCLINATION": 42.9971, "RA_OF_ASC_NODE": 242.5224, "ARG_OF_PERICENTER": 264.8821, "MEAN_ANOMALY": 105.9714, "EPHEMERIS_TYPE": 0, "CLASSIFICATION_TYPE": "U", "NORAD_CAT_ID": 67113, "ELEMENT_SET_NO": 999, "REV_AT_EPOCH": 264, "BSTAR": -0.0083553, "MEAN_MOTION_DOT": -0.0179135, "MEAN_MOTION_DDOT": 0}, "tle": {"line1": "1 67113U 25299M   25358.83334491 -.01791350  00000+0 -83553-2 0  9996", "line2": "2 67113  42.9971 242.5224 0001679 264.8821 105.9714 15.85536036  2648"}}, "geometry": {"type": "Point", "coordinates": [-17.59462057509094, 42.35387970983623]}}, {"type": "Feature", "properties": {"norad_id": 67114, "name": "STARLINK-36180", "group": "last-30-days", "lat": 42.07127678853203, "lon": -15.164799148286555, "alt_km": 313.05548475443175, "timestamp": "2025-12-25T03:55:54.957269+00:00", "meta": {"OBJECT_NAME": "STARLINK-36180", "OBJECT_ID": "2025-299N", "EPOCH": "2025-12-24T20:00:01.000224", "MEAN_MOTION": 15.85539813, "ECCENTRICITY": 0.0001674, "INCLINATION": 42.9972, "RA_OF_ASC_NODE": 242.5181, "ARG_OF_PERICENTER": 266.469, "MEAN_ANOMALY": 106.2022, "EPHEMERIS_TYPE": 0, "CLASSIFICATION_TYPE": "U", "NORAD_CAT_ID": 67114, "ELEMENT_SET_NO": 999, "REV_AT_EPOCH": 275, "BSTAR": -0.008353, "MEAN_MOTION_DOT": -0.01791213, "MEAN_MOTION_DDOT": 0}, "tle": {"line1": "1 67114U 25299N   25358.83334491 -.01791213  00000+0 -83530-2 0  9990", "line2": "2 67114  42.9972 242.5181 0001674 266.4690 106.2022 15.85539813  2753"}}, "geometry": {"type": "Point", "coordinates": [-15.164799148286555, 42.07127678853203]}}, {"type": "Feature", "properties": {"norad_id": 67115, "name": "STARLINK-35892", "group": "last-30-days", "lat": 41.782547357752065, "lon": -13.062022774219193, "alt_km": 313.05164973156025, "timestamp": "2025-12-25T03:55:54.957279+00:00", "meta": {"OBJECT_NAME": "STARLINK-35892", "OBJECT_ID": "2025-299P", "EPOCH": "2025-12-24T20:00:01.000224", "MEAN_MOTION": 15.85552563, "ECCENTRICITY": 0.0001702, "INCLINATION": 42.9971, "RA_OF_ASC_NODE": 242.5141, "ARG_OF_PERICENTER": 263.4978, "MEAN_ANOMALY": 110.7516, "EPHEMERIS_TYPE": 0, "CLASSIFICATION_TYPE": "U", "NORAD_CAT_ID": 67115, "ELEMENT_SET_NO": 999, "REV_AT_EPOCH": 264, "BSTAR": -0.008346, "MEAN_MOTION_DOT": -0.01790934, "MEAN_MOTION_DDOT": 0}, "tle": {"line1": "1 67115U 25299P   25358.83334491 -.01790934  00000+0 -83460-2 0  9992", "line2": "2 67115  42.9971 242.5141 0001702 263.4978 110.7516 15.85552563  2640"}}, "geometry": {"type": "Point", "coordinates": [-13.062022774219193, 41.782547357752065]}}, {"type": "Feature", "properties": {"norad_id": 67116, "name": "STARLINK-35738", "group": "last-30-days", "lat": 41.39413799439289, "lon": -10.612419789116487, "alt_km": 313.07762344590174, "timestamp": "2025-12-25T03:55:54.957307+00:00", "meta": {"OBJECT_NAME": "STARLINK-35738", "OBJECT_ID": "2025-299Q", "EPOCH": "2025-12-24T20:00:01.000224", "MEAN_MOTION": 15.85546854, "ECCENTRICITY": 0.0001691, "INCLINATION": 42.9973, "RA_OF_ASC_NODE": 242.5093, "ARG_OF_PERICENTER": 262.2499, "MEAN_ANOMALY": 113.8776, "EPHEMERIS_TYPE": 0, "CLASSIFICATION_TYPE": "U", "NORAD_CAT_ID": 67116, "ELEMENT_SET_NO": 999, "REV_AT_EPOCH": 264, "BSTAR": -0.0083095, "MEAN_MOTION_DOT": -0.01783792, "MEAN_MOTION_DDOT": 0}, "tle": {"line1": "1 67116U 25299Q   25358.83334491 -.01783792  00000+0 -83095-2 0  9991", "line2": "2 67116  42.9973 242.5093 0001691 262.2499 113.8776 15.85546854  2649"}}, "geometry": {"type": "Point", "coordinates": [-10.612419789116487, 41.39413799439289]}}, {"type": "Feature", "properties": {"norad_id": 67117, "name": "STARLINK-35674", "group": "last-30-days", "lat": 40.99630541915137, "lon": -8.41228217568145, "alt_km": 313.1359341821453, "timestamp": "2025-12-25T03:55:54.957321+00:00", "meta": {"OBJECT_NAME": "STARLINK-35674", "OBJECT_ID": "2025-299R", "EPOCH": "2025-12-24T20:00:01.000224", "MEAN_MOTION": 15.85561048, "ECCENTRICITY": 0.0001686, "INCLINATION": 42.9975, "RA_OF_ASC_NODE": 242.505, "ARG_OF_PERICENTER": 265.0233, "MEAN_ANOMALY": 112.7961, "EPHEMERIS_TYPE": 0, "CLASSIFICATION_TYPE": "U", "NORAD_CAT_ID": 67117, "ELEMENT_SET_NO": 999, "REV_AT_EPOCH": 254, "BSTAR": -0.0083668, "MEAN_MOTION_DOT": -0.01795362, "MEAN_MOTION_DDOT": 0}, "tle": {"line1": "1 67117U 25299R   25358.83334491 -.01795362  00000+0 -83668-2 0  9994", "line2": "2 67117  42.9975 242.5050 0001686 265.0233 112.7961 15.85561048  2541"}}, "geometry": {"type": "Point", "coordinates": [-8.41228217568145, 40.99630541915137]}}, {"type": "Feature", "properties": {"norad_id": 67118, "name": "STARLINK-35701", "group": "last-30-days", "lat": 40.54564587835953, "lon": -6.188529306327287, "alt_km": 313.2345124061694, "timestamp": "2025-12-25T03:55:54.957333+00:00", "meta": {"OBJECT_NAME": "STARLINK-35701", "OBJECT_ID": "2025-299S", "EPOCH": "2025-12-24T20:00:01.000224", "MEAN_MOTION": 15.85568971, "ECCENTRICITY": 0.0001758, "INCLINATION": 42.9973, "RA_OF_ASC_NODE": 242.5007, "ARG_OF_PERICENTER": 267.793, "MEAN_ANOMALY": 111.7593, "EPHEMERIS_TYPE": 0, "CLASSIFICATION_TYPE": "U", "NORAD_CAT_ID": 67118, "ELEMENT_SET_NO": 999, "REV_AT_EPOCH": 270, "BSTAR": -0.0083481, "MEAN_MOTION_DOT": -0.01792608, "MEAN_MOTION_DDOT": 0}, "tle": {"line1": "1 67118U 25299S   25358.83334491 -.01792608  00000+0 -83481-2 0  9998", "line2": "2 67118  42.9973 242.5007 0001758 267.7930 111.7593 15.85568971  2705"}}, "geometry": {"type": "Point", "coordinates": [-6.188529306327287, 40.54564587835953]}}, {"type": "Feature", "properties": {"norad_id": 67119, "name": "STARLINK-36179", "group": "last-30-days", "lat": 39.73536794636654, "lon": -2.688548976221642, "alt_km": 313.1561399755319, "timestamp": "2025-12-25T03:55:54.957343+00:00", "meta": {"OBJECT_NAME": "STARLINK-36179", "OBJECT_ID": "2025-299T", "EPOCH": "2025-12-24T20:00:01.000224", "MEAN_MOTION": 15.8559605, "ECCENTRICITY": 0.0001679, "INCLINATION": 42.997, "RA_OF_ASC_NODE": 242.4933, "ARG_OF_PERICENTER": 263.0884, "MEAN_ANOMALY": 119.2303, "EPHEMERIS_TYPE": 0, "CLASSIFICATION_TYPE": "U", "NORAD_CAT_ID": 67119, "ELEMENT_SET_NO": 999, "REV_AT_EPOCH": 275, "BSTAR": -0.0083259, "MEAN_MOTION_DOT": -0.01790495, "MEAN_MOTION_DDOT": 0}, "tle": {"line1": "1 67119U 25299T   25358.83334491 -.01790495  00000+0 -83259-2 0  9994", "line2": "2 67119  42.9970 242.4933 0001679 263.0884 119.2303 15.85596050  2755"}}, "geometry": {"type": "Point", "coordinates": [-2.688548976221642, 39.73536794636654]}}, {"type": "Feature", "properties": {"norad_id": 67120, "name": "STARLINK-36217", "group": "last-30-days", "lat": 40.126158358733356, "lon": -4.308340544434717, "alt_km": 313.18525077202594, "timestamp": "2025-12-25T03:55:54.957353+00:00", "meta": {"OBJECT_NAME": "STARLINK-36217", "OBJECT_ID": "2025-299U", "EPOCH": "2025-12-24T20:00:01.000224", "MEAN_MOTION": 15.85578083, "ECCENTRICITY": 0.000166, "INCLINATION": 42.9973, "RA_OF_ASC_NODE": 242.497, "ARG_OF_PERICENTER": 266.0962, "MEAN_ANOMALY": 114.9406, "EPHEMERIS_TYPE": 0, "CLASSIFICATION_TYPE": "U", "NORAD_CAT_ID": 67120, "ELEMENT_SET_NO": 999, "REV_AT_EPOCH": 275, "BSTAR": -0.0083493, "MEAN_MOTION_DOT": -0.01793406, "MEAN_MOTION_DDOT": 0}, "tle": {"line1": "1 67120U 25299U   25358.83334491 -.01793406  00000+0 -83493-2 0  9991", "line2": "2 67120  42.9973 242.4970 0001660 266.0962 114.9406 15.85578083  2753"}}, "geometry": {"type": "Point", "coordinates": [-4.308340544434717, 40.126158358733356]}}]}